ONEWEB-0055             
1 45443U 20020V   24052.89581779  .00000421  00000+0  11512-2 0  9999
2 45443  87.9014 189.3040 0001593  99.0242 261.1067 13.11417592191693
ONEWEB-0093             
1 45444U 20020W   24052.79272556 -.00000495  00000+0 -14318-2 0  9999
2 45444  87.9016 189.3039 0001732  94.3824 265.7502 13.11417992191747
ONEWEB-0029             
1 45445U 20020X   24053.11739700  .00000159  00000+0  41296-3 0  9997
2 45445  87.9017 189.2533 0001883 104.2027 255.9310 13.11419551191774
ONEWEB-0068             
1 45446U 20020Y   24052.93963236 -.00000544  00000+0 -15717-2 0  9998
2 45446  87.9013 189.2734 0001750  99.0487 261.0839 13.11417127191689
ONEWEB-0046             
1 45447U 20020Z   24052.93719710 -.00000541  00000+0 -15618-2 0  9992
2 45447  87.9013 189.2863 0001872 114.1655 245.9669 13.11416636191691
ONEWEB-0063             
1 45448U 20020AA  24052.89014283  .00000261  00000+0  70186-3 0  9990
2 45448  87.9013 189.2975 0001682 117.2824 242.8475 13.11419388191774
ONEWEB-0019             
1 45449U 20020AB  24052.94043563 -.00000556  00000+0 -16058-2 0  9996
2 45449  87.9017 189.2860 0001438 105.6211 254.5076 13.11415664191626
ONEWEB-0094             
1 45450U 20020AC  24052.82733177  .00000030  00000+0  43072-4 0  9995
2 45450  87.9257 174.1799 0001762 105.6591 254.4735 13.19254084194853
ONEWEB-0087             
1 45451U 20020AD  24052.89662074  .00000460  00000+0  12609-2 0  9997
2 45451  87.9007 189.2739 0001931 103.4846 256.6497 13.11419246191665
ONEWEB-0082             
1 45452U 20020AE  24052.89825139  .00000545  00000+0  15012-2 0  9996
2 45452  87.9013 189.2725 0001558 101.8354 258.2949 13.11419299191757
ONEWEB-0050             
1 45453U 20020AF  24053.47743052  .00011282  00000+0  12033-2 0  9995
2 45453  87.9961  57.4285 0025047 117.3974 242.9806 14.88536475214407
ONEWEB-0034             
1 45454U 20020AG  24052.91774204  .00000194  00000+0  51271-3 0  9995
2 45454  87.9012 189.2868 0001654 104.2849 255.8463 13.11413342191677
ONEWEB-0060             
1 45455U 20020AH  24052.92583568 -.00000147  00000+0 -45063-3 0  9990
2 45455  87.9015 189.2815 0001764 106.8878 253.2443 13.11415785191634
ONEWEB-0086             
1 45456U 20020AJ  24052.94369326 -.00000626  00000+0 -18034-2 0  9996
2 45456  87.9014 189.2834 0002075  99.3038 260.8325 13.11417527191690
ONEWEB-0088             
1 45457U 20020AK  24052.92096719 -.00000014  00000+0 -76260-4 0  9996
2 45457  87.9006 189.2581 0001781 106.1616 253.9708 13.11415799191623
ONEWEB-0102             
1 47258U 20100A   24052.82693814  .00000353  00000+0  94652-3 0  9992
2 47258  87.9046 159.1082 0001579 110.9066 249.2231 13.12445697153715
ONEWEB-0109             
1 47259U 20100B   24052.83488865  .00000054  00000+0  11585-3 0  9994
2 47259  87.9046 159.0695 0001655 108.4866 251.6443 13.12443218153540
ONEWEB-0110             
1 47260U 20100C   24052.78246825 -.00000587  00000+0 -16677-2 0  9997
2 47260  87.9040 159.0923 0001656 101.7723 258.3592 13.12442445153707
ONEWEB-0111             
1 47261U 20100D   24052.81583293  .00000466  00000+0  12607-2 0  9998
2 47261  87.9046 159.0763 0001668 105.2724 254.8588 13.12444463153549
ONEWEB-0114             
1 47262U 20100E   24052.84600036 -.00000302  00000+0 -87444-3 0  9990
2 47262  87.9041 159.0908 0001267 116.5063 243.6195 13.12443483153509
ONEWEB-0117             
1 47263U 20100F   24052.83806831  .00000002  00000+0 -28925-4 0  9997
2 47263  87.9046 159.0628 0001774 107.3580 252.7742 13.12442632153514
ONEWEB-0118             
1 47264U 20100G   24053.32724600 -.00000236  00000+0 -69127-3 0  9994
2 47264  87.9043 158.9704 0001555 128.1025 232.0244 13.12445130153779
ONEWEB-0119             
1 47265U 20100H   24052.82218712  .00000429  00000+0  11565-2 0  9995
2 47265  87.9046 159.1089 0001730 103.5299 256.6023 13.12443542153689
ONEWEB-0120             
1 47266U 20100J   24053.53135390 -.00000033  00000+0 -12741-3 0  9996
2 47266  87.9046 158.9565 0001608 112.3383 247.7916 13.12437995153803
ONEWEB-0121             
1 47267U 20100K   24052.83330266  .00000102  00000+0  24827-3 0  9991
2 47267  87.9042 159.0909 0001865 104.7534 255.3801 13.12443226153624
ONEWEB-0122             
1 47268U 20100L   24052.82840002  .00000318  00000+0  84834-3 0  9998
2 47268  87.9042 159.0966 0001593 104.8788 255.2516 13.12444191153532
ONEWEB-0123             
1 47269U 20100M   24052.82377304  .00000389  00000+0  10449-2 0  9997
2 47269  87.9045 159.1074 0001691 107.9158 252.2155 13.12443835153676
ONEWEB-0124             
1 47270U 20100N   24052.81264505  .00000329  00000+0  87928-3 0  9997
2 47270  87.9046 159.1054 0001882  98.7240 261.4101 13.12445738153552
ONEWEB-0125             
1 47271U 20100P   24053.32089403 -.00000501  00000+0 -14286-2 0  9997
2 47271  87.9048 158.9627 0002134 115.0352 245.0998 13.12442888153685
ONEWEB-0126             
1 47272U 20100Q   24052.81504037  .00000388  00000+0  10431-2 0  9995
2 47272  87.9043 159.0739 0001572 107.0398 253.0903 13.12442205153681
ONEWEB-0127             
1 47273U 20100R   24052.85235397 -.00000455  00000+0 -12995-2 0  9994
2 47273  87.9047 159.0906 0001613 108.6339 251.4965 13.12443336153710
ONEWEB-0128             
1 47274U 20100S   24053.33201382 -.00000103  00000+0 -32281-3 0  9997
2 47274  87.9054 158.9920 0001722  95.3277 264.8048 13.12445418153798
ONEWEB-0129             
1 47275U 20100T   24052.85393814 -.00000419  00000+0 -12013-2 0  9996
2 47275  87.9048 159.0613 0000641 178.7997 181.3133 13.12444182153668
ONEWEB-0130             
1 47276U 20100U   24052.80630108  .00000175  00000+0  45151-3 0  9999
2 47276  87.9044 159.0801 0001606 101.8550 258.2759 13.12445013153626
ONEWEB-0131             
1 47277U 20100V   24053.33678492  .00000006  00000+0 -18140-4 0  9990
2 47277  87.9047 158.9866 0001749 102.8837 257.2487 13.12445416153732
ONEWEB-0132             
1 47278U 20100W   24052.83171221  .00000138  00000+0  34706-3 0  9993
2 47278  87.9048 159.0884 0002017 106.5178 253.6172 13.12442577153561
ONEWEB-0133             
1 47279U 20100X   24052.84759276 -.00000346  00000+0 -99575-3 0  9995
2 47279  87.9040 159.0904 0001810 103.7523 256.3807 13.12442858153725
ONEWEB-0134             
1 47280U 20100Y   24052.81742344  .00000453  00000+0  12250-2 0  9993
2 47280  87.9040 159.0858 0001614  97.9978 262.1334 13.12442828153698
ONEWEB-0135             
1 47281U 20100Z   24053.31930435 -.00000537  00000+0 -15294-2 0  9996
2 47281  87.9047 158.9956 0001727 104.1947 255.9373 13.12442991153789
ONEWEB-0136             
1 47282U 20100AA  24052.80788964  .00000257  00000+0  67876-3 0  9999
2 47282  87.9046 159.0651 0001353  91.2314 268.8969 13.12444339153649
ONEWEB-0137             
1 47283U 20100AB  24052.84124149 -.00000135  00000+0 -40995-3 0  9993
2 47283  87.9040 159.0884 0001619 112.2604 247.8696 13.12442837153558
ONEWEB-0138             
1 47284U 20100AC  24052.82059563  .00000435  00000+0  11751-2 0  9997
2 47284  87.9040 159.1051 0001642 106.4553 253.6756 13.12443992153634
ONEWEB-0139             
1 47285U 20100AD  24053.32565910 -.00000309  00000+0 -89554-3 0  9991
2 47285  87.9047 158.9723 0001707 105.2117 254.9200 13.12444813153776
ONEWEB-0140             
1 47286U 20100AE  24053.19542714  .00000398  00000+0  10698-2 0  9992
2 47286  87.9042 159.0061 0001612 102.4051 257.7258 13.12445364153710
ONEWEB-0141             
1 47287U 20100AF  24052.83408997 -.00000005  00000+0 -49461-4 0  9996
2 47287  87.9045 159.0741 0001984 117.8160 242.3170 13.12443835153660
ONEWEB-0142             
1 47288U 20100AG  24052.82774515  .00000320  00000+0  85455-3 0  9998
2 47288  87.9044 159.0698 0001476 112.7180 247.4104 13.12441105153653
ONEWEB-0143             
1 47289U 20100AH  24053.31454153 -.00000359  00000+0 -10329-2 0  9998
2 47289  87.9045 158.9927 0001816 108.6545 251.4781 13.12444029153693
ONEWEB-0144             
1 47290U 20100AJ  24052.83012601  .00000212  00000+0  55350-3 0  9994
2 47290  87.9044 159.0721 0001374 112.3555 247.7719 13.12441166153553
ONEWEB-0145             
1 47291U 20100AK  24053.18271630  .00000034  00000+0  60026-4 0  9992
2 47291  87.9044 159.0263 0001590 108.5892 251.5410 13.12445576153792
ONEWEB-0146             
1 47292U 20100AL  24053.33044623 -.00000175  00000+0 -52229-3 0  9993
2 47292  87.9045 158.9791 0002240 105.1350 255.0027 13.12444963153728
ONEWEB-0147             
1 47293U 20100AM  24052.83965556 -.00000072  00000+0 -23679-3 0  9998
2 47293  87.9041 159.0749 0001545  96.6900 263.4405 13.12442489153557
ONEWEB-0115             
1 48042U 21025A   24053.14702799 -.00000147  00000+0 -43753-3 0  9999
2 48042  87.8977 128.6614 0002071 101.7485 258.3876 13.13468254142542
ONEWEB-0152             
1 48043U 21025B   24052.70265922 -.00000250  00000+0 -71928-3 0  9993
2 48043  87.8981 128.7419 0001902 100.7301 259.4043 13.13471177142434
ONEWEB-0153             
1 48044U 21025C   24052.90897576  .00000069  00000+0  15405-3 0  9996
2 48044  87.8984 128.6863 0001785 103.9226 256.2101 13.13468576142451
ONEWEB-0154             
1 48045U 21025D   24052.90580353  .00000169  00000+0  42899-3 0  9997
2 48045  87.8981 128.7019 0001861 101.8206 258.3132 13.13468585142416
ONEWEB-0116             
1 48046U 21025E   24053.48031095  .00000026  00000+0  35112-4 0  9999
2 48046  87.8985 128.5528 0002103 101.1419 258.9947 13.13471570142635
ONEWEB-0150             
1 48047U 21025F   24052.92166875 -.00000192  00000+0 -56024-3 0  9993
2 48047  87.8979 128.6897 0001817 108.1984 251.9342 13.13471391142457
ONEWEB-0107             
1 48048U 21025G   24052.92326045 -.00000189  00000+0 -55217-3 0  9990
2 48048  87.8978 128.6873 0001657 112.4802 247.6503 13.13471373142439
ONEWEB-0101             
1 48049U 21025H   24052.73441581  .00000303  00000+0  79384-3 0  9990
2 48049  87.8985 128.7343 0001784 100.9841 259.1489 13.13470212142383
